OBJECT_NAME,OBJECT_ID,EPOCH,MEAN_MOTION,ECCENTRICITY,INCLINATION,RA_OF_ASC_NODE,ARG_OF_PERICENTER,MEAN_ANOMALY,EPHEMERIS_TYPE,CLASSIFICATION_TYPE,NORAD_CAT_ID,ELEMENT_SET_NO,REV_AT_EPOCH,BSTAR,MEAN_MOTION_DOT,MEAN_MOTION_DDOT
ELEKTRO-L 3,2019-095A,2026-07-19T03:57:21.795840,1.00271683,.00014812,0.3374,82.3610,18.7927,331.1277,0,U,44903,999,2402,0,-.102E-5,0
SHIJIAN-20 (SJ-20),2019-097A,2026-07-19T20:13:57.664128,1.00271859,.0015536,5.0000,74.6626,57.7897,153.4287,0,U,44910,999,2402,0,.13E-5,0
TJS-5,2020-002A,2026-07-20T00:03:46.882080,1.00272007,.0008076,0.0763,79.6395,338.0195,348.5713,0,U,44978,999,2403,0,-.345E-5,0
GSAT-30,2020-005A,2026-07-20T01:32:52.903680,1.00272944,.00032905,0.0281,237.7003,213.5505,312.8174,0,U,45026,999,2383,0,-.167E-5,0
EUTELSAT KONNECT,2020-005B,2026-07-20T06:19:11.064864,1.00269189,.00018836,0.0678,94.1870,142.4672,163.3712,0,U,45027,999,2466,0,.47E-6,0
JCSAT-17,2020-013A,2026-07-20T06:55:52.546368,1.00273012,.0003217,5.3923,357.1847,130.3761,50.4880,0,U,45245,999,2356,0,-.317E-5,0
GEO-KOMPSAT-2B,2020-013B,2026-07-20T06:53:45.248928,1.00272621,.00003795,0.0534,237.9926,312.2545,339.5088,0,U,45246,999,2361,0,-.346E-5,0
BEIDOU-3 G2,2020-017A,2026-07-20T01:32:00.488256,1.00272466,.00018781,2.9298,47.8126,57.6212,295.4314,0,U,45344,999,2358,0,-.144E-5,0
AEHF-6 (USA 298),2020-022B,2026-07-20T06:56:15.010368,1.00269941,.00418207,2.4769,301.5936,15.5039,222.7757,0,U,45465,999,2334,0,-.299E-5,0
BEIDOU-3 G3,2020-040A,2026-07-20T06:48:38.240352,1.00274321,.00024521,2.5269,67.4984,312.2630,130.9872,0,U,45807,999,2240,0,-.357E-5,0
APSTAR-6D,2020-045A,2026-07-20T06:55:22.594080,1.00271961,.0002428,0.0351,81.0310,26.1518,68.7522,0,U,45863,999,2219,0,-.319E-5,0
KOREASAT 116,2020-048A,2026-07-20T06:50:15.584640,1.00274234,.00009999,0.0176,11.0735,106.3788,39.3478,0,U,45920,999,2197,0,-.364E-5,0
EXPRESS 103,2020-053A,2026-07-18T06:50:29.284224,1.00272468,.00004759,0.0409,240.7231,187.7051,66.7797,0,U,45985,999,2196,0,-.288E-5,0
EXPRESS 80,2020-053B,2026-07-18T22:52:57.151200,1.00265649,.00004754,0.0290,276.2746,346.5594,97.1420,0,U,45986,999,2195,0,-.14E-5,0
BSAT-4B,2020-056A,2026-07-20T06:48:30.752064,1.00270519,.00045303,0.0408,216.0152,274.1640,19.8250,0,U,46112,999,2172,0,-.352E-5,0
MEV-2,2020-056B,2026-07-20T01:08:55.200768,1.00272053,.00002227,0.0538,253.4772,309.5985,110.9753,0,U,46113,999,8101,0,-.14E-6,0
GALAXY 30 (G-30),2020-056C,2026-07-20T05:41:29.677920,1.00263090,.00020844,0.0191,58.0870,68.1467,132.1475,0,U,46114,999,2162,0,.36E-6,0
GAOFEN-13 01,2020-071A,2026-07-20T06:50:45.536928,1.00275747,.00444436,0.4813,86.0926,119.9204,312.9548,0,U,46610,999,2125,0,-.365E-5,0
TIANTONG-1 2,2020-082A,2026-07-20T06:52:45.345216,1.00271471,.0001372,0.7524,332.5416,132.5666,61.0850,0,U,46916,999,2098,0,-.357E-5,0
LUCAS (JDRS-1),2020-089A,2026-07-20T02:39:38.568384,1.00273097,.00019601,0.0627,268.2795,188.9871,331.3193,0,U,47202,999,2074,0,-.238E-5,0
SXM-7,2020-096A,2026-07-20T05:52:51.088800,1.00271963,.00036288,0.0235,101.9198,12.9746,186.1819,0,U,47240,999,777,0,-.207E-5,0
CMS-01,2020-099A,2026-07-20T03:15:31.523328,1.00272893,.00034321,0.0187,67.8557,201.7342,160.1998,0,U,47256,999,2052,0,-.167E-5,0
TURKSAT 5A,2021-001A,2026-07-20T06:25:40.442880,1.00271496,.00000835,0.0143,75.3020,7.6743,342.3961,0,U,47306,999,2029,0,.152E-5,0
TIANTONG-1 3,2021-003A,2026-07-20T03:15:01.571040,1.00269901,.00031475,1.7318,341.3939,142.7896,303.9880,0,U,47321,999,2029,0,-.155E-5,0
TJS-6,2021-010A,2026-07-20T06:02:31.823808,1.00274342,.00031226,0.1658,261.1892,238.8970,67.0734,0,U,47613,999,2014,0,.41E-6,0
SBIRS GEO-5 (USA 315),2021-042A,2026-07-20T00:43:55.775424,1.00271734,.00016107,5.0626,329.3750,150.4750,282.7417,0,U,48618,999,1910,0,-.269E-5,0
FENGYUN 4B,2021-047A,2026-07-19T05:21:02.283840,1.00277813,.00068605,0.2306,80.1873,273.3927,128.2750,0,U,48808,999,1889,0,-.336E-5,0
SXM-8,2021-049A,2026-07-20T00:44:57.499584,1.00272669,.00058838,0.0164,47.8467,344.9315,191.1215,0,U,48838,999,1891,0,-.208E-5,0
TIANLIAN 1-05,2021-063A,2026-07-20T06:21:55.801152,1.00269960,.00012159,1.6773,80.4262,83.9316,246.0017,0,U,49011,999,1840,0,.105E-5,0
STAR ONE D2,2021-069A,2026-07-20T06:41:14.800128,1.00269953,.0002451,0.0079,14.1000,124.6027,189.6021,0,U,49055,999,1827,0,0,0
EUTELSAT QUANTUM,2021-069B,2026-07-20T04:48:07.468416,1.00274097,.00022284,0.0116,40.7052,70.2511,306.7473,0,U,49056,999,1825,0,.124E-5,0
ZHONGXING-2E,2021-071A,2026-07-20T03:19:46.115616,1.00272394,.00012376,0.0475,238.7491,259.8618,307.3218,0,U,49062,999,1836,0,-.294E-5,0
