ELEKTRO-L 3             
1 44903U 19095A   26200.16483560 -.00000102  00000+0  00000+0 0  9999
2 44903   0.3374  82.3610 0001481  18.7927 331.1277  1.00271683 24027
SHIJIAN-20 (SJ-20)      
1 44910U 19097A   26200.84302852  .00000130  00000+0  00000+0 0  9998
2 44910   5.0000  74.6626 0015536  57.7897 153.4287  1.00271859 24020
TJS-5                   
1 44978U 20002A   26201.00262595 -.00000345  00000+0  00000+0 0  9997
2 44978   0.0763  79.6395 0008076 338.0195 348.5713  1.00272007 24038
GSAT-30                 
1 45026U 20005A   26201.06450120 -.00000167  00000+0  00000+0 0  9996
2 45026   0.0281 237.7003 0003290 213.5505 312.8174  1.00272944 23838
EUTELSAT KONNECT        
1 45027U 20005B   26201.26332251  .00000047  00000+0  00000+0 0  9999
2 45027   0.0678  94.1870 0001883 142.4672 163.3712  1.00269189 24663
JCSAT-17                
1 45245U 20013A   26201.28880262 -.00000317  00000+0  00000+0 0  9993
2 45245   5.3923 357.1847 0003217 130.3761  50.4880  1.00273012 23560
GEO-KOMPSAT-2B          
1 45246U 20013B   26201.28732927 -.00000346  00000+0  00000+0 0  9990
2 45246   0.0534 237.9926 0000379 312.2545 339.5088  1.00272621 23613
BEIDOU-3 G2             
1 45344U 20017A   26201.06389454 -.00000144  00000+0  00000+0 0  9998
2 45344   2.9298  47.8126 0001878  57.6212 295.4314  1.00272466 23581
AEHF-6 (USA 298)        
1 45465U 20022B   26201.28906262 -.00000299  00000+0  00000+0 0  9995
2 45465   2.4769 301.5936 0041820  15.5039 222.7757  1.00269941 23345
BEIDOU-3 G3             
1 45807U 20040A   26201.28377593 -.00000357  00000+0  00000+0 0  9999
2 45807   2.5269  67.4984 0002452 312.2630 130.9872  1.00274321 22406
APSTAR-6D               
1 45863U 20045A   26201.28845595 -.00000319  00000+0  00000+0 0  9996
2 45863   0.0351  81.0310 0002428  26.1518  68.7522  1.00271961 22190
KOREASAT 116            
1 45920U 20048A   26201.28490260 -.00000364  00000+0  00000+0 0  9998
2 45920   0.0176  11.0735 0000999 106.3788  39.3478  1.00274234 21979
EXPRESS 103             
1 45985U 20053A   26199.28506116 -.00000288  00000+0  00000+0 0  9994
2 45985   0.0409 240.7231 0000475 187.7051  66.7797  1.00272468 21960
EXPRESS 80              
1 45986U 20053B   26199.95343925 -.00000140  00000+0  00000+0 0  9993
2 45986   0.0290 276.2746 0000475 346.5594  97.1420  1.00265649 21954
BSAT-4B                 
1 46112U 20056A   26201.28368926 -.00000352  00000+0  00000+0 0  9991
2 46112   0.0408 216.0152 0004530 274.1640  19.8250  1.00270519 21723
MEV-2                   
1 46113U 20056B   26201.04786112 -.00000014  00000+0  00000+0 0  9992
2 46113   0.0538 253.4772 0000222 309.5985 110.9753  1.00272053 81014
GALAXY 30 (G-30)        
1 46114U 20056C   26201.23714905  .00000036  00000+0  00000+0 0  9998
2 46114   0.0191  58.0870 0002084  68.1467 132.1475  1.00263090 21628
GAOFEN-13 01            
1 46610U 20071A   26201.28524927 -.00000365  00000+0  00000+0 0  9990
2 46610   0.4813  86.0926 0044443 119.9204 312.9548  1.00275747 21256
TIANTONG-1 2            
1 46916U 20082A   26201.28663594 -.00000357  00000+0  00000+0 0  9996
2 46916   0.7524 332.5416 0001372 132.5666  61.0850  1.00271471 20984
LUCAS (JDRS-1)          
1 47202U 20089A   26201.11086306 -.00000238  00000+0  00000+0 0  9992
2 47202   0.0627 268.2795 0001960 188.9871 331.3193  1.00273097 20744
SXM-7                   
1 47240U 20096A   26201.24503575 -.00000207  00000+0  00000+0 0  9994
2 47240   0.0235 101.9198 0003628  12.9746 186.1819  1.00271963  7770
CMS-01                  
1 47256U 20099A   26201.13578152 -.00000167  00000+0  00000+0 0  9990
2 47256   0.0187  67.8557 0003432 201.7342 160.1998  1.00272893 20526
TURKSAT 5A              
1 47306U 21001A   26201.26782920  .00000152  00000+0  00000+0 0  9997
2 47306   0.0143  75.3020 0000083   7.6743 342.3961  1.00271496 20296
TIANTONG-1 3            
1 47321U 21003A   26201.13543485 -.00000155  00000+0  00000+0 0  9997
2 47321   1.7318 341.3939 0003147 142.7896 303.9880  1.00269901 20295
TJS-6                   
1 47613U 21010A   26201.25175722  .00000041  00000+0  00000+0 0  9990
2 47613   0.1658 261.1892 0003122 238.8970  67.0734  1.00274342 20144
SBIRS GEO-5 (USA 315)   
1 48618U 21042A   26201.03050666 -.00000269  00000+0  00000+0 0  9999
2 48618   5.0626 329.3750 0001610 150.4750 282.7417  1.00271734 19104
FENGYUN 4B              
1 48808U 21047A   26200.22294310 -.00000336  00000+0  00000+0 0  9996
2 48808   0.2306  80.1873 0006860 273.3927 128.2750  1.00277813 18891
SXM-8                   
1 48838U 21049A   26201.03122106 -.00000208  00000+0  00000+0 0  9992
2 48838   0.0164  47.8467 0005883 344.9315 191.1215  1.00272669 18915
TIANLIAN 1-05           
1 49011U 21063A   26201.26522918  .00000105  00000+0  00000+0 0  9997
2 49011   1.6773  80.4262 0001215  83.9316 246.0017  1.00269960 18408
STAR ONE D2             
1 49055U 21069A   26201.27864352  .00000000  00000+0  00000+0 0  9997
2 49055   0.0079  14.1000 0002451 124.6027 189.6021  1.00269953 18271
EUTELSAT QUANTUM        
1 49056U 21069B   26201.20008644  .00000124  00000+0  00000+0 0  9992
2 49056   0.0116  40.7052 0002228  70.2511 306.7473  1.00274097 18258
ZHONGXING-2E            
1 49062U 21071A   26201.13872819 -.00000294  00000+0  00000+0 0  9996
2 49062   0.0475 238.7491 0001237 259.8618 307.3218  1.00272394 18365
